name,address,city,state,zip,capacity,lng,lat
Children First Inc,77 S High Street,Columbus,OH,43215,137,-83.00045846,39.96062566
Columbus Early Learning Center - Eastside*,240 N. Champion Ave,Columbus,OH,43203,56,-82.9681672,39.97150396
David's Preschool and Extended Care at UCC*,80 West Columbus Street,Canal Winchester,OH,43110,88,-82.8083239,39.84164997
Stepping Stones Learning Center*,860 Griswold St,Worthington,OH,43085,140,-83.0048184,40.09044558
Northland Church of Christ Child Care*,4581 Cleveland Ave.,Columbus,OH,43231,67,-82.95286318,40.06256
St. Joseph Montessori School,933 Hamlet Street,Columbus,OH,43201,300,-83.00000377,39.98267885
Washington Square Day Care Center (Creative Child Care)*,2525 Petzinger Rd,Columbus,OH,43209,106,-82.92551264,39.92962185
Meadow Park Children's Center*,2425 Bethel Road,Columbus,OH,43220,202,-83.08448983,40.06454616
Cypress Christian Preschool & Daycare,377 Alton Darby Creek Rd.,Galloway,OH,43119,202,-83.16714169,39.95816741
Kare-A-Lot Child Care Center*,1030 King Avenue,Columbus,OH,43212,100,-83.03404623,39.99126894
Mother's Helper and Childcare Services II*,712 East Spring Street,Columbus,OH,43203,93,-82.98233925,39.96882108
Grace Early Childhood Center*,8225 Worthington-Galena Road,Westerville,OH,43081,208,-82.97325041,40.13312915
Genessee Avenue Learning Center*,1889 Genessee Ave.,Columbus,OH,43211,78,-82.96099527,40.01879513
Merry Moppet Early Learning Center*,5075 Britton Road,Hilliard,OH,43026,261,-83.13548059,40.05517163
Creative Child Care - North*,1601 Shanley Dr,Columbus,OH,43224,131,-82.97610298,40.05540043
Gingerbread House Preschool & Nursery*,67 West 4th Ave,Columbus,OH,43201,52,-83.00637372,39.9852412
"National Child Care Center, LLC*",4400 Westerville Rd,Columbus,OH,43211,76,-82.9353906,40.06152666
Puddies Playhouse Learning Center*,1450 East Main St,Columbus,OH,43205,44,-82.96034946,39.95776411
Bright Starz,6834 Refugee Road,Canal Winchester,OH,43110,47,-82.81734212,39.91139875
Helping Hands Center for Special Needs*,2500 Medary Ave,Columbus,OH,43202,168,-83.00495536,40.01433976
"Stepping Stones Daycare Center, LLC*",876 Freeway Dr North,Columbus,OH,43229,82,-82.99513202,40.0701148
Goddard School,4160 Executive Parkway,Westerville,OH,43081,133,-82.90004765,40.08372483
Discovery Learning Center II*,3870 East Livingston Ave,Columbus,OH,43227,75,-82.89309401,39.94574912
"Giggles and Grins Childcare Center, Inc*",800 Jasonway Ave,Columbus,OH,43214,81,-83.04116479,40.0590769
"HSD Academy Learning Center II, Inc.*",1336 Courtright Road,Columbus,OH,43227,38,-82.89692508,39.94514515
YMCA Columbus Urban League Watkins ES Head Start,1520 Watkins Road,Columbus,OH,43027,20,-82.95462458,39.90477597
Vineyard Early Childhood Center*,6000 Cooper Rd,Westerville,OH,43081,104,-82.93485546,40.0934742
YWCA Family Center Safe & Sound*,900 Harvey Court,Columbus,OH,43219,94,-82.94898676,39.98691589
Buckeye Pre-K Solutions,1414 Gault St,Columbus,OH,43205,34,-82.96026498,39.95067703
"Connected Pathways Early Learning Center, LLC*",496 Havens Corners Rd,Gahanna,OH,43230,154,-82.86349506,40.0182255
One Family Child Care Center*,1375 Francisco Rd,Columbus,OH,43220,24,-83.05602602,40.05840195
Where we Teach and Care for Children LLC*,4152 1/2 West Broad St,Columbus,OH,43228,43,-83.11218962,39.95322455
Success Kidz West*,1288 Georgesville Road,Columbus,OH,43228,47,-83.11701989,39.92677617
New Albany Academy*,31 N High St,New Albany,OH,43054,32,-82.80877961,40.08340963
Fun Daycare Center LLC*,3434 Sullivant Ave,Columbus,OH,43204,81,-83.09053839,39.94295996
Next Generation Child Care*,1733 Brice Road,Reynoldsburg,OH,43068,39,-82.82981056,39.94425382
Learning and Fun Childcare*,2222 Eakin Road,Columbus,OH,43223,44,-83.05625756,39.93348732
Kiwi's Clubhouse,973 East Johnstown Road,Gahanna,OH,43230,69,-82.86206488,40.04251761
Infinite Learning Center*,4268 Eastland Square Dr,Columbus,OH,43232,104,-82.88278174,39.91346112
Creative Minds Learning Academy*,927 South James Road,Columbus,OH,43227,56,-82.91528434,39.95244441
Empire Learning Center*,422 Holtzman Ave,Columbus,OH,43205,69,-82.94550455,39.95934446
Buzybee Childcare & Learning Center*,740 Greencrest Dr,Westerville,OH,43081,98,-82.92924762,40.10610735
ABC's Educare,1184 Lockhurst Rd,Columbus,OH,43207,72,-82.96372238,39.92970529
Balanced Family Academy Clubhouse,1717 Bethel Rd,Columbus,OH,43220,102,-83.06527603,40.06387266
"Child Zone, LLC*",2415 Deewood Dr,Columbus,OH,43229,54,-82.95254215,40.09605039
The Goddard School - Canal Winchester,6405 Canal Street,Canal Winchester,OH,43110,182,-82.8302196,39.85106749
Enchanted Care Learning Center,1243 County Line Rd,Westerville,OH,43081,144,-82.88672309,40.13131478
Designed for Destiny Child Care Center*,3530 Soldano Blvd,Columbus,OH,43228,85,-83.09505954,39.95629452
Kiddie Academy*,2069 Summit View Rd,Powell,OH,43065,118,-83.07204168,40.13243459
"Family Focus Learning Center, LLC*",3425 Great Western Blvd,Columbus,OH,43204,47,-83.09152792,39.95855883
Madina Learning Center*,3296 Westerville Rd,Columbus,OH,43224,37,-82.95395458,40.03561355
Junior Graduates Enrichment Center*,4807 Evanswood Dr,Columbus,OH,43229,44,-82.99449022,40.06310163
Sunny Day Academy,4595 Morse Road,Gahanna,OH,43230,141,-82.87081077,40.05558998
Michael's Lil' Angels*,6161 Radekin Road,Columbus,OH,43232,43,-82.83135155,39.9434906
Debi's Day Care Center*,5504 East Livingston Ave,Columbus,OH,43232,122,-82.84847943,39.94321845
Harmony Kids Academy*,415 East Broad Street,Columbus,OH,43215,24,-82.98957084,39.96347635
Kinder Care Learning Center - Gahanna*,520 Morrison Road,Gahanna,OH,43230,144,-82.86349174,40.00444491
"Connected Pathways Early Learning Centers, LLC*",4242 Stelzer Rd,Columbus,OH,43230,78,-82.91028642,40.06188966
America's Childcare LLC*,77 North Wilson Road,Columbus,OH,43204,35,-83.09444423,39.95530207
Enchanted Care Learning Center,4388 Davidson Rd,Hilliard,OH,43026,144,-83.13536031,40.04981006
Faith and Dreams Academy*,2543 Franksway Street,Columbus,OH,43232,,-82.88144285,39.92268128
KIDSRUS,4625 Cemetery Rd,Hilliard,OH,43026,61,-83.13967468,40.03175345
Meadows Academy*,5775 Dublinshire Dr,Dublin,OH,43017,26,-83.14594727,40.12262797
Start 2 Finish Learning Academy*,227 Fairway Blvd.,Whitehall,OH,43213,51,-82.87281517,39.97153645
"Precious Moments Learning Center, Inc.*",921 East Dublin Granville Rd,Columbus,OH,43229,99,-82.99391461,40.08760512
Tree of Love*,981 East Hudson St,Columbus,OH,43211,36,-82.98407611,40.01436134
Childcare Wonderland*,383 East Broad St,Columbus,OH,43215,38,-82.99043004,39.96337559
Future Scholars Learning Academy II*,6116 McNaughten Center,Columbus,OH,43232,67,-82.83814218,39.95343895
Prewitt's Playhouse Early Learning Center LLC*,1860 Lockbourne Road,Columbus,OH,43207,42,-82.96498944,39.92743685
R.F. Hairston Early Learning Center*,400 North 20th Street,Columbus,OH,43203,44,-82.97314659,39.97399732
American Learning Center*,5454 Westerville Rd,Westerville,OH,43081,110,-82.9279511,40.0841259
Daystarz Child Care Center*,3323 Cleveland Avenue,Grove City,OH,43123,39,-83.09066606,39.88335194
A Colorful World Learning Center*,3350 Allegheny Ave,Columbus,OH,43209,95,-82.91417716,39.98026592
Central Ohio Child Care*,1755 Linden Place,Columbus,OH,43211,58,-82.96389527,40.02006613
"Bexley Play and Learn Early Learning Center, LLC*",211 North Merkle Rd,Bexley,OH,43209,28,-82.92417476,39.97484882
Primrose School at Pinnacle,1239 Lamplighter Dr,Grove City,OH,43123,193,-83.0368202,39.873085
Tutor Time Child Care/Learning Center*,6365 Emerald Parkway,Dublin,OH,43016,174,-83.14188382,40.08211477
"Jelly Bean Junction Learning Center, Inc.*",1123 Bethel Road,Columbus,OH,43220,100,-83.04890855,40.06335273
Cleveland Learning Academy and Child Care LLC*,2775 Cleveland Ave,Columbus,OH,43224,145,-82.96472525,40.02407396
Little Scholars Learning Center*,3943 Groves Road,Columbus,OH,43232,69,-82.89587876,39.93115133
Life Time Fitness,3900 Easton Station,Columbus,OH,43219,70,-82.91761669,40.0498176
Jump City Childcare Center LLC,6190 Shamrock Court,Dublin,OH,43016,34,-83.13904882,40.09549631
Sunny Day Academy,255 Bradenton Ave,Dublin,OH,43017,73,-83.11985366,40.08115521
"No Place Like Home of Columbus, LLC*",5599 Chatterton Rd,Columbus,OH,43232,117,-82.84635743,39.91353523
Enchanted Care Kids Campus - Gahanna,4571 Morse Rd,Gahanna,OH,43230,104,-82.87131731,40.05561525
Kiddie Kare*,4085 Venture Place,Groveport,OH,43125,52,-82.88567889,39.87632295
Tender Years Learning Center,1344 S Ohio Ave,Columbus,OH,43206,23,-82.97237592,39.93734844
Linworth Children's Center,7070 Bent Tree Blvd,Columbus,OH,43235,157,-83.07842981,40.10093623
Complete Child Care Center*,1692-1704 Schrock Rd,Columbus,OH,43229,65,-82.97064311,40.10601056
Little Dreamers Big Believers,1347 West Fifth Ave,Columbus,OH,43212,111,-83.04229502,39.98865254
"Hugs & Love Learning Center, LLC*",2740 Eastland Mall,Columbus,OH,43232,43,-82.88694507,39.91872406
Southside Learning and Development Ctr- Lincoln Park*,1700 South 20th Street,Columbus,OH,43207,59,-82.97658601,39.9292491
Brightside Academy Early Care and Education*,1977 Cleveland Ave,Columbus,OH,43211,157,-82.97158042,40.00702141
Battelle Discovery Center (Bright Horizons),1199 Perry St,Columbus,OH,43201,152,-83.01903466,39.98526629
Cambridge Daycare Center*,795 E Hudson St.,Columbus,OH,43211,19,-82.98924712,40.01459605
Primrose School of Dublin,6415 Post Rd,Dublin,OH,43016,182,-83.16130737,40.10683609
Kinder Care Learning Center*,6477 Centennial Drive,Reynoldsburg,OH,43068,132,-82.82575229,39.9198002
Shining Stars Child Care*,491 LANCASTER AVE,Reynoldsburg,OH,43068,41,-82.80995502,39.972593
"Star Box Learning Center, LLC*",2625 Bethel Road,Columbus,OH,43220,43,-83.08808889,40.06466601
American Child Care Center*,1672 East Dublin Granville Rd,Columbus,OH,43229,64,-82.9737484,40.08739999
The Goddard School of Reynoldsburg,40 Chris Perry Lane,Columbus,OH,43213,144,-82.82930636,39.98157465
Kings Kids Learning Center*,4001 East Livingston Ave,Columbus,OH,43227,69,-82.88949837,39.94542998
"Connected Pathways Early Learning Center, LLC*",4374 Cleveland Ave,Columbus,OH,43224,59,-82.95305014,40.05835718
Kids Kingdom Child Care and Learning Center*,970 Oakland Park Avenue,Columbus,OH,43224,65,-82.98827182,40.03253253
Leaping Learners Early Educational Center*,5330 Cemetery Road,Hilliard,OH,43026,43,-83.15869268,40.03012051
Hugs & Love Too Learning Center LLC*,51 S Murray Hill Rd,Columbus,OH,43228,67,-83.12926656,39.95135128
Chase Back-up Child Care Polaris,1111 Polaris Parkway,Columbus,OH,43240,152,-82.9912969,40.14461193
Five Star Kidz Learning Center LLC*,1000 Parsons Ave,Columbus,OH,43206,35,-82.98297536,39.94338392
Worthington Learning Center*,7878 Worthington-Galena Rd,Worthington,OH,43085,111,-82.9829226,40.12310856
Nikou Learning Center*,1440 Hempwood Dr,Columbus,OH,43229,95,-82.97886847,40.08438521
Playtime Preschool*,1030 Alum Creek Dr,Columbus,OH,43209,144,-82.94512718,39.94791987
Iqra Learning Center*,1611 Woodland Ave,Columbus,OH,43219,96,-82.95451358,40.00156254
Kare-A-Lot Children's Center-Riverside Drive*,3164 Riverside Drive,Columbus,OH,43221,62,-83.09117311,40.01779075
Northwest Christian Child Care,5707 Olentangy River Road,Columbus,OH,43235,249,-83.03911332,40.07722005
"Oakland Park Day Care, Inc*",1430 Oakland Park Ave,Columbus,OH,43224,82,-82.9751441,40.03190943
Explore and Discover Academy*,3879 S HIgh St,Columbus,OH,43207,40,-83.00070461,39.88296732
Our Lady of Bethlehem Infant Toddler Program,4567 Olentangy River Road,Columbus,OH,43214,20,-83.03385894,40.05425424
Great Beginnings Academy*,2345 Demorest Road,Grove City,OH,43123,97,-83.10834257,39.90444468
The Goddard School,5351 New Albany Road,New Albany,OH,43054,140,-82.82330345,40.08981293
"Columbus Daycare Center, LLC*",3389-A Westerville Rd,Columbus,OH,43224,74,-82.95252471,40.03788697
Noor Daycare*,6725 Karl Road,Columbus,OH,43229,42,-82.97470593,40.10430898
Old School Learning Academy LLC*,1075 E Johnstown Rd,Gahanna,OH,43230,78,-82.86166457,40.04298905
Riverside Education Center*,3366 Olentangy River Road,Columbus,OH,43202,69,-83.02778452,40.02745412
North Branch YMCA*,1640 Sandalwood Place,Columbus,OH,43229,100,-82.97440458,40.07694207
"A & B Child Care and Learning Center, LLC*",4818 Indianola Ave,Columbus,OH,43214,40,-83.00054926,40.06442059
Parker's Learning Center*,2040 E Dublin Granville Rd,Columbus,OH,43229,40,-82.96331012,40.08692822
Start Fresh Learning Academy*,1149 Parsons Ave,Columbus,OH,43206,34,-82.98337763,39.94016733
ABC Learning Center*,5730 Kathy Run Lane,Columbus,OH,43229,74,-82.95368046,40.08705953
Run the Race Club*,880 S Wayne Ave,Columbus,OH,43204,40,-83.06282455,39.93759868
4 the Luv of Children*,2001 Morse Road Fountain Square,Columbus,OH,43229,100,-82.9657445,40.05983934
Little Treasures Learning Academy*,2274 Margaret Ave,Columbus,OH,43219,50,-82.94373403,39.9849151
Fresh Start Learning Academy II*,3500 East Broad Street,Columbus,OH,43213,56,-82.9077118,39.97271273
Brightside Academy Early Care and Education*,660 Harrisburg Pike,Columbus,OH,43223,124,-83.03665956,39.94446252
Twinkle Star Child Care Center*,2280 Stelzer Road,Columbus,OH,43219,89,-82.9114005,40.0196546
Capital Royal Child Care & Learning*,1288 Brice Road,Reynoldsburg,OH,43068,90,-82.82874658,39.95394614
Parents Choice Learning Center*,4523 Cleveland Ave,Columbus,OH,43231,37,-82.95295234,40.06157255
Kids Zone Learning Center*,1516 North Cassady,Columbus,OH,43219,56,-82.92995984,40.00153919
Learning Tree Preschool*,7751 East Main St,Reynoldsburg,OH,43068,81,-82.79108529,39.95549962
Romake Bilingual Child Care*,1357 Brice Road,Reynoldsburg,OH,43068,30,-82.82896817,39.95313071
"Excellence Learning Center, LLC*",3675 Sullivant Ave,Columbus,OH,43228,92,-83.09676939,39.9425284
Little Miracles Early Development Center*,4445 Reinbeau Dr.,Columbus,OH,43232,90,-82.8809782,39.90641985
A Child's Place Learning Center*,1616 Brice Road,Reynoldsburg,OH,43068,33,-82.82938062,39.94719145
Goddard School in Grove City,2585 London-Groveport Road,Grove City,OH,43123,153,-83.07427067,39.83911
"Waiss Learning Center, LLC.*",2200 East Dublin Granville Road,Columbus,OH,43229,60,-82.9591539,40.0867457
Precious Moments Early Learning Academy*,2646 West Broad St,Columbus,OH,43204,16,-83.07106288,39.9551938
"Helpful Hands Children's Center, Inc.*",6833 Flags Center Dr,Columbus,OH,43229,98,-82.95129972,40.10947062
My Second Home Early Learning School*,3777 S High St,Columbus,OH,43207,100,-82.99994817,39.88480312
ABC Academy Day Care Center*,900 Beechwood Rd,Columbus,OH,43227,90,-82.89417526,39.95596524
"Lima Academy Learning Center, LLC*",4121 West Broad St.,Columbus,OH,43228,61,-83.11196627,39.95294687
"Waggoner Academy Learning Center, LLC*",968 North Waggoner Rd,Blacklick,OH,43004,90,-82.79087411,40.00300381
"Rainbow Child Care, Too*",5599 Hilliard Rome Office Park,Hilliard,OH,43026,92,-83.15444376,39.99278029
Amazing Kidz Learning Academy*,5011 Chatterton Rd,Columbus,OH,43232,94,-82.86155,39.91559084
Milo Learning Center*,1989 Zettler Center Drive,Columbus,OH,43223,46,-83.05030344,39.93005044
Hearts & Hands Childcare Center*,1814 Parsons Ave,Columbus,OH,43207,13,-82.98426377,39.92626811
Jelly Bean Junction*,3480 Snouffer Rd,Columbus,OH,43235,142,-83.08222364,40.10437075
Jelly Bean Junction*,173 South Yearling Road,Columbus,OH,43213,78,-82.88503162,39.9712559
HSD Academy Learning Center*,1485 East Livingston Ave,Columbus,OH,43205,42,-82.95810045,39.94908649
Success Kidz North LLC*,2149 Cleveland Ave,Columbus,OH,43211,83,-82.96943962,40.01051516
New Dimensions Child Care Center*,2899 East Dublin-Granville Rd,Columbus,OH,43231,29,-82.93992602,40.08255653
Little Giants Learning Center,126 Pinewood Dr,Whitehall,OH,43213,48,-82.88639824,39.97275312
Rose Child Care and Learning Center*,3823-B Sullivant Ave,Columbus,OH,43228,41,-83.10038607,39.94233561
Tutor Time Child Care/Learning Center,5893 Preserve Blvd,New Albany,OH,43054,116,-82.86061701,40.07125836
The Gardner School,6145 Emerald Parkway,Dublin,OH,43016,172,-83.14187217,40.07910808
Romake Bilingual Preschool*,1371 Brice Rd,Reynoldsburg,OH,43068,40,-82.82899601,39.95283996
"Little Dreamers Big Believers, LLC",1077 North High St,Columbus,OH,43201,54,-83.00499738,39.98402175
Paige's Playhouse Child Care & Learning Center*,141 South State St.,Westerville,OH,43081,60,-82.93038264,40.12239539
Kidz Planet/Moms Choice Childcare Center*,6011 Cleveland Ave,Columbus,OH,43231,46,-82.9504223,40.09490887
Kings & Queens Learning Center*,684 New York Ave,Columbus,OH,43201,49,-82.98732718,39.98745776
"Northland Tutoring Center, Ltd*",1752 Huy Road,Columbus,OH,43224,81,-82.96626346,40.03530507
Ecole Maison Enrichment Center*,4635 Trueman Blvd. ÿSuite 150,Hilliard,OH,43026,105,-83.12428977,40.04731636
Aminata's Day Care*,5125 W. Broad St.,Columbus,OH,43228,61,-83.1373866,39.95177589
Unitee Child Care Center*,2121 Joyce Ave,Columbus,OH,43219,41,-82.9622783,40.01075267
Sunshyne Early Learning Academy*,1713 Brice Rd,Reynoldsburg,OH,43068,44,-82.82973996,39.94491254
The Gathering Place Academy*,3550 East Deshler Ave,Columbus,OH,43227,63,-82.89839253,39.93680407
Kingdom Kids Day Care & Learning Center*,2645 Fairwood Ave.,Columbus,OH,43207,49,-82.95701554,39.91141153
Loving Hands Learning Center*,3314 Noe Bixby Road,Columbus,OH,43232,40,-82.86534352,39.90740502
New Albany Montessori School,6436 Harlem Rd,New Albany,OH,43054,97,-82.83697751,40.09550347
Nationwide Children's Hospital Child Care Center*,255 East Main St,Columbus,OH,43215,60,-82.99253513,39.95692514
Hilltop Preschool*,2473 West Broad St,Columbus,OH,43204,38,-83.06647962,39.95532256
Brightside Academy Early Care and Education*,3525 Cleveland Ave,Columbus,OH,43224,158,-82.96165689,40.03957262
A Colorful World Learning Center*,407 Stelzer Road,Columbus,OH,43219,67,-82.91323492,39.98013636
The Sunshine House*,3860 Hoover Road,Grove City,OH,43123,100,-83.06925625,39.88448355
Kiddie Academy of Reynoldsburg*,6411 East Main St,Reynoldsburg,OH,43068,233,-82.82645551,39.95482184
Agape Enrichment Academy and Learning Center*,4519 Cemetery Road,Hilliard,OH,43026,96,-83.13683091,40.03198178
Kinder Care Learning Center*,1145 Norton Road,Galloway,OH,43119,100,-83.14418185,39.92868527
Olentangy Church Child Care,3660 Olentangy River Rd.,Columbus,OH,43214,35,-83.03182609,40.0347223
New Beginnings Christian Daycare Center,492 Williams Road,Columbus,OH,43207,122,-82.9828983,39.89132735
"Mother's Helper, Inc.*",2140 East Fifth Avenue,Columbus,OH,43219,90,-82.94705259,39.98603731
Darby Kids Christian Childcare*,5443 Norton Road,Grove City,OH,43123,78,-83.18507796,39.85466388
"Happy Feet Daycare, Inc*",1415 E Livingston Ave,Columbus,OH,43205,42,-82.95981701,39.94917
Bright Future Learning Academy*,1302 W Mound St,Columbus,OH,43223,47,-83.03294369,39.94664947
Precious Jewels Early Learning Center*,3650 Sunbury Road,Columbus,OH,43219,108,-82.93267362,40.03438668
Perfect Learning Academy,1730 Lockbourne Rd,Columbus,OH,43207,31,-82.96478026,39.92995207
ABC Smarties Learning Center,2650 Courtright Rd,Columbus,OH,43232,24,-82.89681814,39.91779711
Sunshine Childcare & Learning Center*,4238 Westview Center Plaza,Columbus,OH,43228,47,-83.11135802,39.93765941
Mini Miracles Child Care Center*,1030 Shady Lane,Columbus,OH,43227,47,-82.87118797,39.95435788
Oakstone Academy Day Care*,2655 Oakstone Dr,Columbus,OH,43231,24,-82.94605077,40.09799436
Teach & Learn Child Care*,2696 South Hamilton Road,Columbus,OH,43232,56,-82.87984452,39.92309261
Lending Hand Learning Center LLC*,2154 Parkwood Avenue,Columbus,OH,43211,58,-82.95649213,40.01212554
Newbridge Learning Center*,3850 SULLIVANT AVE,Columbus,OH,43228,68,-83.10155873,39.94239102
Elite Academy*,5475 Sandalwood Blvd,Columbus,OH,43229,61,-82.98037402,40.07843749
Gladden Community House Preschool*,183 Hawkes Ave,Columbus,OH,43223,44,-83.02518636,39.95559766
Safe Childcare Center LLC*,2975 Morse Road,Columbus,OH,43231,56,-82.94044225,40.05892765
Radiant Kids Child Care Center*,7055 Avery Rd,Dublin,OH,43017,104,-83.15878996,40.11424716
Bright Star Academy*,6567 Dublin Center Dr,Dublin,OH,43017,93,-83.09407629,40.10235128
Kings Kids Learning Center II*,4444 East Livingston Ave.,Columbus,OH,43227,76,-82.87728747,39.94484177
God's Kidz Too Christian Learning Center*,2300-A South Hamilton Rd,Columbus,OH,43232,135,-82.87946578,39.92757523
Bright Beginnings Learning & Enrichment Center*,7100 East Livingston Ave,Reynoldsburg,OH,43068,34,-82.8062948,39.94615196
Primrose School of Worthington,6902 North High St,Worthington,OH,43085,200,-83.01702906,40.1045647
Life Time Fitness,3825 Hard Road,Dublin,OH,43016,174,-83.08924796,40.11785699
Forest Park Christian Schools*,5600 Karl Rd,Columbus,OH,43229,142,-82.9755837,40.08131615
Little Disciples Learning Center*,4142 Westerville Rd ÿ Suite 200,Columbus,OH,43224,95,-82.94014586,40.05507625
Dublin Learning Academy,5900 Cromdale Dr,Dublin,OH,43017,124,-83.14806918,40.13638002
Sister Sister Child Care: First Steps LLC,1300 Yellowwood Dr,Columbus,OH,43229,22,-82.98313999,40.07770629
BA Kiddie College*,989 E.Main Street,Columbus,OH,43205,50,-82.97286496,39.95788224
"Chosen Kids Learning Center, LLC*",2545 Petzinger Road,Columbus,OH,43209,24,-82.92556519,39.93049434
Bright Horizons at Capital City,277 East Town St,Columbus,OH,43215,116,-82.9926988,39.95961362
Kinder Care Learning Center-Sunbury*,1231 S. Sunbury Rd.,Westerville,OH,43081,162,-82.89184192,40.09469387
We are the World Learning Academy*,6776 Refugee Rd,Columbus,OH,43110,30,-82.81885345,39.91091563
Childtime Children's Center*,6660 Doubletree Avenue,Columbus,OH,43229,112,-82.98739156,40.10199244
Natha Day Care Center*,1882 Tamarack Circle South,Columbus,OH,43229,24,-82.96774268,40.07572164
Children of America (columbus)*,8360 North High Street,Columbus,OH,43235,158,-83.0167078,40.13292002
"Nation Child Care Group, LTD*",4501 Sullivant Ave #C,Columbus,OH,43228,75,-83.11788873,39.93933818
Humble Beginnings Childcare and Learning Center*,1548 Lockbourne Rd,Columbus,OH,43207,34,-82.96443805,39.93415788
Kinder Care Learning Center - Tamarack*,1955 Tamarack Circle North,Columbus,OH,43229,100,-82.96611854,40.07764652
Prep Academy Schools - Dublin*,5720 Avery Rd,Dublin,OH,43016,299,-83.15841976,40.08389492
The Learning Experience*,9158 South Old State Road,Lewis Center,OH,43035,76,-82.99830141,40.14886785
"All in a Day Child Care Center, LLC*",3454 South Hamilton Road,Columbus,OH,43232,28,-82.88140206,39.90607012
Oxford School of Dublin*,5700 Blazer Parkway,Dublin,OH,43017,118,-83.13015564,40.08101963
Creekside Childcare Center*,2225 Rohr Rd,Lockbourne,OH,43137,72,-82.94233106,39.84516732
Play & Learn Christian Child Care*,35 E Stanton Avenue,Columbus,OH,43214,119,-83.01770854,40.07448371
Recess Child Development Center*,6776 Refugee Rd,Canal Winchester,OH,43110,21,-82.81885345,39.91091563
JCC North Preschool*,1985 Swansford Drive,Dublin,OH,43016,58,-83.06978097,40.12312017
Atonement Lutheran Preschool,1621 Francisco Road,Columbus,OH,43220,72,-83.06264157,40.05879502
La Petite Academy*,4426 Valley Quail Blvd South,Westerville,OH,43081,105,-82.8972362,40.08587585
St. Stephens Community House-Christ Child Center*,1500 East 17th ÿAve,Columbus,OH,43219,84,-82.96934143,40.00010738
"Zenith Learning Center, Inc.*",4600 Heaton Road,Columbus,OH,43229,65,-82.96693903,40.06238523
South Side Learning and Development Center*,280 Reeb Avenue,Columbus,OH,43207,138,-82.98742291,39.9250255
Live Laugh and Learn Junior,300 East 5th Avenue,Columbus,OH,43201,35,-82.99760303,39.98687359
Moonlight Center for Learning*,1314 Brice Rd,Reynoldsburg,OH,43068,42,-82.82879979,39.9533914
"Children's Choice Academy, LLC*",2873 Suwanee Rd,Columbus,OH,43224,88,-82.96103534,40.02646199
"A Love for Children, LLC*",4656 Heaton Rd,Columbus,OH,43229,,-82.96662109,40.06320726
Kinder Care Learning Center #1550*,1341 Cherry Way Drive,Gahanna,OH,43230,167,-82.88717532,40.05482817
"Zenith Learning East, Inc*",2261 South Hamilton Rd,Columbus,OH,43232,62,-82.87988392,39.92798503
Little Butterflies Daycare and Preschool*,1196 West Broad Street,Columbus,OH,43222,78,-83.0325257,39.95844766
Mary's Little Lamb Child Interactive Learning Academy*,1848 Parsons Ave,Columbus,OH,43207,20,-82.9843182,39.92561199
Enchanted Care Learning Center - Gahanna,4575 Morse Rd,Gahanna,OH,43230,144,-82.87123289,40.05561104
Christian Village Academy*,6950 Americana Parkway,Reynoldsburg,OH,43068,49,-82.81450465,39.93001348
Nikou Learning Center*,840 Dempsey Rd,Westerville,OH,43081,109,-82.8938858,40.09434416
Infinite Learning Too!*,4249 Eastland Square Drive,Columbus,OH,43232,43,-82.88301929,39.91335492
Barrington School,6046 Tara Hill Drive,Dublin,OH,43017,106,-83.15368828,40.11169686
The Goddard School - Parkmeadow*,6074 Parkmeadow Lane,Hilliard,OH,43026,140,-83.18072028,40.03763822
Kiddie World*,1393 Community Park,Columbus,OH,43229,76,-82.95226147,40.10063593
Primrose School of Hilliard West,4370 Creekbend Dr,Hilliard,OH,43026,130,-83.18152163,40.03935537
"Kann Learning Academy,LCC*",2743 East Fifth Avenue,Columbus,OH,43219,66,-82.93053641,39.98505177
Kinder Care Learning Center*,5381 W. Broad St,Columbus,OH,43228,95,-83.14389713,39.9515196
North Broadway Childrens Center*,48 East North Broadway,Columbus,OH,43214,254,-83.01420852,40.03161644
Dayspring Child Care Center*,3919 Brice Road,Canal Winchester,OH,43110,115,-82.83474076,39.89176465
Enchanted Care Learning Center - Dublin*,4370 Dale Dr.,Dublin,OH,43017,143,-83.1071247,40.10154313
Kinder Care Learning Center #1241*,5757 Shannon Heights Blvd,Dublin,OH,43016,131,-83.12285501,40.07058194
Gahanna Children's College*,230 Agler Rd.,Gahanna,OH,43230,131,-82.88695875,40.01925423
Karl Academy and Learning Center*,3976 Karl Road,Columbus,OH,43224,51,-82.97674736,40.04930966
Hawthorn Academy*,3760 Snouffer Rd,Columbus,OH,43235,44,-83.08919536,40.10454616
Primrose School of Reynoldsburg,60 North Brice Road,Columbus,OH,43213,204,-82.82668348,39.98301017
Brightside Academy Early Care and Education*,3611 East Livingston Ave,Columbus,OH,43227,156,-82.8991003,39.94593689
Christian Community Connections CCC*,2410 Park Crescent Dr,Columbus,OH,43232,48,-82.84186737,39.93099644
All Star Academy Learning Center*,5992 Westerville Road,Westerville,OH,43081,50,-82.92539526,40.0939281
Kids Klub Child Care*,5521 Groveport Rd,Groveport,OH,43125,126,-82.91055386,39.85934405
"Connected Pathways Early Learning Centers, LLC*",4350 Cleveland Ave.,Columbus,OH,43224,20,-82.95309233,40.05787362
Walker's Child Care and Learning Center*,1146 Barnett Rd,Columbus,OH,43227,42,-82.90612864,39.9480576
Ourday at Messiah Preschool,51 North State Street,Westerville,OH,43081,104,-82.93219157,40.1272917
Columbus Advanced Learning Academy Inc*,3992-3994 Alum Creek Dr,Columbus,OH,43207,21,-82.93036973,39.88701765
Kinder Care Learning Center*,3885 Berry Leaf Lane,Hilliard,OH,43026,142,-83.14884249,40.03175062
The Learning Experience,6320 Perimeter Loop Road,Dublin,OH,43017,79,-83.15222925,40.10175084
Destiny's Childcare & Learning Academy LLC,1634 East Main St,Columbus,OH,43205,50,-82.95582892,39.95766613
Halo Academy*,6049 Cleveland Ave,Columbus,OH,43231,93,-82.95036259,40.0957116
Kiddie Korner and Childcare Learning Center*,2768 South Hamilton Road,Columbus,OH,43232,17,-82.8799354,39.92193489
Moonlight Child Care*,4656 West Broad St,Columbus,OH,43228,119,-83.12626979,39.9524716
Sonshine Christian Academy*,1965 Gladstone Avenue,Columbus,OH,43211,52,-82.96985216,40.00643484
Poppy's Learning Center LLC*,755 East Main St,Columbus,OH,43205,33,-82.97914109,39.95802888
"Kids World Child Day Care, Inc.*",2812 Morse Road,Columbus,OH,43231,168,-82.94435695,40.05918354
YMCA West ÿCentral Preschool*,1481 West Town Street,Columbus,OH,43223,20,-83.04181038,39.95372937
Heaven Sent Children's Academy*,5616 Gender Road,Canal Winchester,OH,43110,105,-82.82715951,39.8656623
"Little Gems Learning Place, LLC*",1159 Clinton St,Columbus,OH,43211,30,-82.97910542,40.01203442
Success Kidz 24-Hour Enrichment Center*,1800 Parsons Ave,Columbus,OH,43207,68,-82.98423969,39.92661072
"PARKERS LEARNING CENTER II, LLC*",2040 East Dublin Granville Rd suit d,Columbus,OH,43229,26,-82.96331012,40.08692822
Little Angels,5336 Gender Rd,Canal Winchester,OH,43110,38,-82.82654749,39.872669
Mee Maw's House*,2283 Sunbury Rd,Columbus,OH,43219,80,-82.93399928,40.0189736
Kinder Care Learning Center - #708*,5351 Cleveland Ave,Columbus,OH,43231,142,-82.95165477,40.07861087
Gahanna Christian Academy,817 N. Hamilton Road,Gahanna,OH,43230,73,-82.86502527,40.03915249
"Discovery Learning Center, Inc.*",4970 Cleveland Ave.,Columbus,OH,43231,105,-82.95208064,40.07075918
City Kids Daycare Downtown*,274 Marconi Blvd.,Columbus,OH,43215,115,-83.00526686,39.96715564
Riverside Children's Center (Bright Horizons),835 Thomas Lane,Columbus,OH,43214,240,-83.03859536,40.03271956
Agora's Little Gems Early Learning & Child Care*,400 West Broad St,Columbus,OH,43215,154,-83.0110927,39.961088
Kiddy Grove Day Care West 2*,3779 Sullivant Ave,Columbus,OH,43228,51,-83.09888342,39.94240927
Millbrook Nursery School and Kindergarten*,1405 Moler Rd,Columbus,OH,43207,96,-82.95668824,39.93193875
Kinder Care Learning Center - Sawmill*,4895 Sawmill Rd,Columbus,OH,43235,96,-83.09312566,40.06931485
Giggles and Blessings Learning Center*,1474 Cleveland Ave,Columbus,OH,43211,41,-82.97983732,39.99543651
Daycare R Us*,2241 Agler Rd,Columbus,OH,43224,58,-82.95235123,40.02696581
JCC of Greater Columbus*,1125 College Ave.,Columbus,OH,43209,280,-82.93574032,39.94587992
Jubba Day Care West*,3770 West Broad St,Columbus,OH,43228,107,-83.10154756,39.95370725
Chase Back-Up Child Care Center,3415 Vision Dr,Columbus,OH,43219,104,-82.92134424,40.0442073
Heavenly Kids Center for Learning*,400 East Mound St,Columbus,OH,43215,194,-82.9883655,39.95612618
Purple Door Christian Child Care Center,2684 Columbus St.,Grove City,OH,43123,161,-83.0742125,39.88138686
Friendship Christian Learning Center*,1775 W. Broad Street,Columbus,OH,43223,91,-83.04776606,39.95651382
Fun-Damentals Learning Center*,1449 Chambers Road,Columbus,OH,43212,108,-83.0456305,39.99385197
The Learning Ladder Preschool and Daycare,695 Cooper Rd.,Westerville,OH,43081,100,-82.94121485,40.10812784
Mock University for Children*,1911 Oakland Park Ave,Columbus,OH,43224,112,-82.96213093,40.0311886
Kinder Care Learning Center-New Albany-#000556*,5524 New Albany Rd East,New Albany,OH,43054,148,-82.82609647,40.09714382
Neighborhood House Child Care*,1000 Atcheson Street,Columbus,OH,43203,61,-82.9758979,39.97369229
Sunny Day Academy*,5675 Feder Rd,Columbus,OH,43228,173,-83.15195378,39.97312477
Central Community House Child Care*,1150 East Main Street,Columbus,OH,43205,72,-82.96885363,39.95792877
Edwards Creative Learning Center*,3858 Alum Creek Drive,Columbus,OH,43207,177,-82.93016976,39.88940215
Primrose School of Canal Winchester,6375 Winchester Blvd.,Canal Winchester,OH,43110,80,-82.83011405,39.85405533
Balanced Family Academy,5150 Reed Rd,Columbus,OH,43220,88,-83.06648496,40.06296933
Academy One*,10102 Woodcrest Way,New Albany,OH,43054,155,-82.78743774,40.09315478
Bundles of Joy*,2693 Mock Road,Columbus,OH,43219,30,-82.93701354,40.01075703
Riverside Methodist Child Care,2701 Zollinger Road,Columbus,OH,43221,64,-83.08547828,40.01959069
Burbank Early Childhood School,4770 Burbank Drive,Columbus,OH,43220,191,-83.08295192,40.05236325
"Little Prep School, Inc*",2350 Fuji Dr.,Columbus,OH,43229,94,-82.95447453,40.08842551
Kinder Care Learning Center-Worthington*,401 Park Rd.,Worthington,OH,43085,99,-82.99696045,40.12692667
Smoky Row Children's Center*,8615 Smoky Row Rd,Powell,OH,43065,236,-83.07090275,40.13315167
Columbus Montessori Education Center*,979 S James Rd,Columbus,OH,43227,229,-82.91538177,39.95148705
Kinder Care Learning Center*,5959 East Broad Street,Columbus,OH,43213,120,-82.84645355,39.97883561
Bright Start Learning Center*,6060 Channingway Blvd.,Columbus,OH,43232,114,-82.83163518,39.93863581
Sprout Early Education Center*,415 East Main St,Columbus,OH,43215,42,-82.98794237,39.95745398
Global Child Care Center*,1845 East Hudson St,Columbus,OH,43211,141,-82.96032343,40.01336477
Kinder Care Learning Center*,861 Eastwind Drive,Westerville,OH,43081,99,-82.91403533,40.10198912
Ladan Learning Center. LLC*,6028 Cleveland Avenue,Columbus,OH,43232,42,-82.95021888,40.09571354
Kinder Care Learning Center #880*,2680 Sawbury Blvd,Worthington,OH,43235,100,-83.08685207,40.11394501
Kinder Care Learning Center*,2001 Hard Rd,Columbus,OH,43235,107,-83.06880003,40.1172885
Primrose School of Upper Arlington,2941 Kenny Road,Columbus,OH,43221,90,-83.03940734,40.01955519
Little Dreamers Big Believers,828 Grandview Ave,Columbus,OH,43215,90,-83.04559024,39.97405333
Columbus Early Learning Center - B.I.T.C.*,760 East Broad Street,Columbus,OH,43205,38,-82.98033674,39.9646935
Daydream Daycare*,3077 Fisher Road,Columbus,OH,43204,64,-83.08258377,39.97132732
Tiny Toe's 1*,5115-5117 East Main St,Columbus,OH,43227,54,-82.86056867,39.95497118
Early Horizons Learning Center*,4330 Clime Rd North,Columbus,OH,43228,99,-83.11145494,39.93507942
F.C.I. Too! Early Learning Academy*,2511 Mock Road,Columbus,OH,43219,127,-82.94296998,40.01120866
Kiddy Grove West Day Care Center*,3777 Sullivant Ave,Columbus,OH,43228,77,-83.09880013,39.94241351
Faith United Methodist Educare,15 W Columbus St,Canal Winchester,OH,43110,81,-82.80634191,39.84140896
Kids By Design Enrichment Academy,1200 Brentnell Ave,Columbus,OH,43219,80,-82.94985221,39.99236203
The Sunshine House*,515 Waterbury Blvd.,Gahanna,OH,43230,98,-82.86364914,40.00784437
Tiny Tots Child Care Services*,1442 Elmore Ave,Columbus,OH,43224,16,-82.97665638,40.04249337
Our Lady of Bethlehem School and Child Care,4567 Olentangy River Road,Columbus,OH,43214,152,-83.03385894,40.05425424
YMCA Early Learning Center*,2879 Johnstown Road,Columbus,OH,43219,78,-82.90806133,40.00815117
Kinder Care Learning Center*,77 Caren Ave,Worthington,OH,43085,203,-83.01953118,40.10546044
Early Foundations Learning Center*,1521 East Dublin Granville Road,Columbus,OH,43229,46,-82.97701143,40.08696949
Glenwood Center For Early Childhood*,2833 Valleyview Dr,Columbus,OH,43204,102,-83.07775487,39.9630543
Little Buckeye Learning Center*,827 East Dublin Granville Rd,Columbus,OH,43229,101,-82.99659846,40.08774035
A Child's Place Learning Center*,5130 Sedalia Dr,Columbus,OH,43232,73,-82.86349879,39.90708226
Tomorrow's Child Preschool and Learning Center,3975 Brown Park Dr.,Hilliard,OH,43026,104,-83.13810394,40.03421751
Our Play Station and Learning Center*,520 North Nelson Rd.,Columbus,OH,43219,84,-82.9447583,39.97901294
Little Peoples Day Care*,3880 Clime Rd,Columbus,OH,43228,39,-83.09931146,39.9294342
Hoggy's Play Pen*,6535 East Livingston Avenue,Reynoldsburg,OH,43068,36,-82.8212497,39.94285182
A Child's Garden*,5200 Sullivant Avenue,Columbus,OH,43228,112,-83.13837125,39.94305727
My Little Academy Learning Center*,4856 W Broad St,Columbus,OH,43228,28,-83.13102318,39.95229127
Sunshine Nursery School*,3750 ÿHenderson Road,Columbus,OH,43220,179,-83.09284266,40.0609047
Heaven Sent Children's Academy II*,5624 Gender Road,Canal Winchester,OH,43110,96,-82.82718957,39.86540226
"SarahAnns Learning Unlimited, LLC.*",3898 Lattimer St,Hilliard,OH,43026,151,-83.15968951,40.03112221
A Better Choice Care*,2572 Cleveland Ave,Columbus,OH,43211,91,-82.96492886,40.01973901
The Enrichment Center-Grove City*,4200 Kelnor Drive,Grove City,OH,43123,93,-83.06674199,39.87714005
OSU Child Care Center - Buckeye Village*,2724 Defiance Drive,Columbus,OH,43210,119,-83.02630882,40.0156422
Sister's Academy LLC*,1680 Schrock Rd,Columbus,OH,43229,22,-82.97088636,40.10594643
Coleeta Day Care*,5336 Gender Rd,Canal Winchester,OH,43110,89,-82.82654749,39.872669
Ginger's Little Lamb*,271 Tallman St.,Groveport,OH,43125,114,-82.89678307,39.85322843
La Petite Academy - Dublin*,7135 Sawmill Rd.,Dublin,OH,43017,105,-83.09074516,40.11261421
Epworth Day Care With A Difference,5100 Karl Rd,Columbus,OH,43229,46,-82.97644446,40.07134107
Creative Play Center,600 High St,Worthington,OH,43085,100,-83.0181471,40.08562642
A Place to Grow,6760 Discovery Blvd.,Dublin,OH,43017,103,-83.14992025,40.10354722
Church of the Redeemer UM Preschool & Child Care,235 McNaughten Road,Columbus,OH,43213,63,-82.83668786,39.97549727
High Hopes Child Care Center*,1234 Marion Road,Columbus,OH,43207,36,-82.96349938,39.92261938
Little Gems Learning Place*,1000 Bonham Ave.,Columbus,OH,43211,37,-82.98203145,39.99334416
All God's Children Learning Center*,895-C Parsons Ave,Columbus,OH,43206,39,-82.98295994,39.94554902
Faith and Dreams Early Education Academy*,2551 Franksway Street,Columbus,OH,43232,36,-82.88146041,39.92251273
Tina's Tiny Toons Too*,1999 Bryden Rd,Columbus,OH,43205,94,-82.94716955,39.96001345
La Petite Academy - Hilliard*,3710 Ridge Mill Dr.,Hilliard,OH,43026,149,-83.11211359,40.03009024
Christ Lutheran Children's Center,2314 E Main St,Columbus,OH,43209,125,-82.93697403,39.9572533
Treehouse Learning Center*,158 Imperial Drive,Gahanna,OH,43230,46,-82.89219633,40.02246738
Ibiscus Child Care Center*,5695 Emporium Square,Columbus,OH,43231,80,-82.94801982,40.08588169
A+ Academy Child Center*,4580 Heaton Road,Columbus,OH,43229,176,-82.96696445,40.0621564
Bright Minds Daycare and Learning Center*,142 North Wilson Road,Columbus,OH,43204,56,-83.09366142,39.95729894
Kinder Care Learning Center - Avery*,4705 Avery Rd.,Hilliard,OH,43026,102,-83.1594174,40.05177766
YMCA Jerry L Garver Child Care Program*,6767 Refugee Road,Canal Winchester,OH,43110,120,-82.82066638,39.91041512
Fresh Start Learning Academy III*,3030 Sullivant Ave,Columbus,OH,43204,130,-83.07930776,39.94351662
Today's Child Learning Center*,3715 E Main St,Whitehall,OH,43213,79,-82.89898157,39.95610233
Kinder Care Learning Center*,2960 E. Dublin-Granville Rd.,Columbus,OH,43231,100,-82.94036515,40.08314014
Kinder Care Learning Center-Kimberly Parkway*,4235 Kimberly Parkway North,Columbus,OH,43232,88,-82.88515367,39.92614368
Primrose School of Hilliard at Mill Run,4230 Trueman Blvd,Hilliard,OH,43026,180,-83.12124607,40.03788871
Joyful Beginnings Children's Learning Academy*,1825 Woodland Ave,Columbus,OH,43219,90,-82.95411812,40.00566079
The Cottage Child Development Center*,4855 Pintail Creek Dr,Canal Winchester,OH,43110,56,-82.82780034,39.87942732
Helpful Hands Childrens Center*,1271 Morse Road,Columbus,OH,43229,88,-82.98499356,40.06091815
Indianola Children's Center*,1970 Waldeck Ave,Columbus,OH,43201,48,-83.00543062,40.00311607
Merry Moppet Early Learning Center*,2701 Hard Rd,Columbus,OH,43235,125,-83.08755516,40.11780162
Our Kidz Enrichment & Child Care Centers*,1787 East Livingston Ave,Columbus,OH,43205,78,-82.94953359,39.94866405
St. Mary Preschool,672 South Third Street,Columbus,OH,43206,64,-82.99525265,39.94870913
Just Like Mam Mam's Child Care Center*,2631 Morse Road,Columbus,OH,43231,93,-82.94888989,40.05928682
Children's Academy*,100 Obetz Road,Columbus,OH,43207,200,-82.99825058,39.88219918
Kiwi's Clubhouse,2025 West Henderson Rd,Columbus,OH,43220,50,-83.07362732,40.05651066
A Little Piece of Heaven Learning Center*,771 Harrisburg Pike,Columbus,OH,43223,45,-83.03900917,39.94169359
Live Laugh and Learn Infant/Toddler Center,184 E. 5th Ave,Columbus,OH,43201,60,-83.00028959,39.98697702
Revelation Family Child Care Center LLC*,2850 Fisher Road,Columbus,OH,43204,55,-83.07682542,39.97298311
"Little Gems Learning Place, LLC*",2030 Leonard Ave,Columbus,OH,43219,86,-82.95071601,39.9875735
Eastminster Child's Play and Learning Center*,3100 East Broad,Columbus,OH,43209,100,-82.91960687,39.97143911
The Goddard School of Worthington,694 Mt. Airyshire Blvd.,Columbus,OH,43235,143,-83.03600285,40.12660334
Kinder Care Learning Center-Reynoldsburg*,6720 Tussing Road,Reynoldsburg,OH,43068,97,-82.81967873,39.92690848
"Jubba Daycare 2, Inc*",4428 Walford Street,Columbus,OH,43224,95,-82.96181496,40.0593124
Enchanted Care Learning Center*,4392 Davidson Rd,Hilliard,OH,43026,144,-83.13552038,40.04979663
"Connected Pathways Early Learning Centers, LLC*",2753 Northland Plaza Dr,Columbus,OH,43231,153,-82.94598424,40.08300028
Joyland Preschool/Childcare and Kindergarten*,5400 Wilcox Road,Dublin,OH,43016,92,-83.14959759,40.07581013
Educare Montessori*,2733 Summer Dr,Dublin,OH,43016,81,-83.08882961,40.12177021
Westerville Learning Center*,149 Charring Cross Dr,Westerville,OH,43081,100,-82.93022801,40.11219155
Hilliard 1st Baptist Child Care and Learning Center*,2929 Hilliard-Rome Road,Hilliard,OH,43026,70,-83.15349947,40.01176686
Kinder Care Learning Center - Grove City*,2274 Stringtown Rd,Grove City,OH,43123,98,-83.06404552,39.87908811
Kinder Care Learning Center #514*,550 Fox Ridge Street,Columbus,OH,43228,105,-83.12976925,39.94095324
Let The Children Come*,2264 Margaret Avenue,Columbus,OH,43219,88,-82.94389224,39.98492401
Kinder Care Learning Center - Ridgemill #634*,3700 Ridge Mill Drive,Hilliard,OH,43026,93,-83.11208667,40.02994648
Grove City Christian Child Care Center,2996 Columbus Street,Grove City,OH,43123,282,-83.08251059,39.88163529
"Starting Point Learning Care, LLC*",2533 Lockbourne Road,Columbus,OH,43207,118,-82.96625595,39.91371864
Nikou Learning Center*,309 North High Street,Canal Winchester,OH,43110,94,-82.80447109,39.85040713
"Grove City Christian Child Care, Preschool & Schoolage Prog.",4770 Hoover Rd.,Grove City,OH,43123,153,-83.07064082,39.86606377
Watch Me Grow*,5817 Beechcroft Rd.,Columbus,OH,43229,73,-82.96459376,40.08755229
The Crossing Community Church Child Nurturing Center*,4770 Britton Parkway,Hilliard,OH,43026,85,-83.13494516,40.05384065
Creative Child Care - East*,5831 Westbourne Ave,Columbus,OH,43213,90,-82.84476319,39.98403501
Program for Young Children,56 S. Columbia Ave,Columbus,OH,43209,58,-82.93937754,39.96803709
"Jolly Tots, Too!",5511 N. Hamilton Rd,Columbus,OH,43230,201,-82.86285465,40.06864144
Children's Castle Educare*,4990 Roberts Road,Hilliard,OH,43026,145,-83.14157094,40.0033816
Kinder Care Learning Center*,1255 County Line Road,Westerville,OH,43081,132,-82.88615704,40.13128272
Kinder Care Learning Center #301237*,6036 Tara Hill Dr.,Dublin,OH,43017,99,-83.15349332,40.1116113
The Goddard School of Dublin,6239 Perimeter Dr,Dublin,OH,43017,160,-83.15864148,40.10498572
Schoenbaum Family Center & CDCFC Head Start*,175 East 7th Ave,Columbus,OH,43201,111,-83.00132122,39.98995097
Holiday Child Care Center*,1343 South Hamilton Rd.,Columbus,OH,43227,62,-82.87772005,39.94742571
Casey's Kids*,700 Jasonway Ave.,Columbus,OH,43214,18,-83.03951224,40.05611417
Ascension Lutheran Preschool*,1479 Morse Road,Columbus,OH,43229,115,-82.97980431,40.06059898
"Small World Child Care, Inc.*",1080 Obetz Rd,Columbus,OH,43207,70,-82.97468806,39.87810708
Kinder Care Learning Center-Westerville*,574 Charring Cross Dr,Westerville,OH,43081,94,-82.9301444,40.11109387
Nationwide Children's Hospital Employee Child Care Center*,650 South 18th Street,Columbus,OH,43205,91,-82.97650966,39.95181357
The Children's Center,5900 Innovation Dr,Dublin,OH,43016,58,-83.14914454,40.09168948
Safe Haven Day Care & Learning Center*,2136 Cleveland Ave,Columbus,OH,43211,62,-82.96934316,40.01040691
Play to Learn Day Care Center*,26 S Grener Ave,Galloway,OH,43228,70,-83.1235929,39.95216465
La Petite Academy*,50 Bannockburn Blvd,Blacklick,OH,43004,162,-82.80560752,39.98433403
Rainbow Child Care Center*,2010 Officeview Place,Reynoldsburg,OH,43068,140,-82.82912477,39.93850601
The OSU Child Care Program - Ackerman Rd*,725 Ackerman Rd,Columbus,OH,43202,372,-83.03179309,40.01833216
"Alexander's Busy Bee Nursery and Preschool, Inc.*",275 South Clarendon Ave,Columbus,OH,43223,40,-83.05885275,39.94991927
YMCA Hilltop Educare Center*,1952-A West Broad Street,Columbus,OH,43223,88,-83.04359152,39.95711689
Excel Preparatory-Mansion Day School,72 Woodland Avenue,Columbus,OH,43203,146,-82.95734384,39.96868946
King's Kids Day Care Inc*,2730 Kingston Avenue,Grove City,OH,43123,166,-83.07580557,39.87716417
C. James Grothaus Child Care Center,275 East Broad St,Columbus,OH,43215,100,-82.99331028,39.96303777
The Learning Resource Center*,2682 Crossroads Plaza,Columbus,OH,43219,66,-82.93325211,40.02626337
Little Lambs Children's Center,425 S. Hamilton Road,Gahanna,OH,43230,256,-82.86740396,40.01010585
Kids Care Academy*,3360 Kohr Blvd.,Columbus,OH,43224,125,-82.94746022,40.03754046
City Kids in Hilliard*,4940 Scioto Darby Road,Hilliard,OH,43026,87,-83.14643993,40.02217519
Jeffrey Mansion Preschool - Bexley Recreation Dept,165 North Parkview Avenue,Bexley,OH,43209,48,-82.9411411,39.97272132
"Ready, Set, Grow",5200 New Albany Road,New Albany,OH,43054,298,-82.8230877,40.08886505
Kinder Care Learning Center #889*,2001 Bethel Road,Columbus,OH,43220,108,-83.07222497,40.06412885
Kinder Care Learning Center*,55 South Cleveland Ave,Westerville,OH,43081,122,-82.94830618,40.12385219
The Mary Evans Child Development Center,3777 Dublin Road,Columbus,OH,43221,96,-83.1029259,40.03026089
Boulevard Presbyterian Preschool & Child Care,1235 Northwest Blvd.,Columbus,OH,43212,91,-83.03767688,39.98342767
Kiddy Grove Day Care*,3266 E Cleveland Ave,Grove City,OH,43123,111,-83.08975543,39.88302591
Academy Kids Learning Center*,289 Woodland Ave.,Columbus,OH,43203,214,-82.95713647,39.97334999
"Education Unlimited, Ecole Francaise",5120 Godown Road,Columbus,OH,43220,42,-83.05621182,40.06242863
Holy Trinity Child Development Program,2001 Northwest Blvd.,Columbus,OH,43212,100,-83.05152176,39.99793091
DSCC - Child Development Center,3990 E. Broad St.,Columbus,OH,43213,274,-82.89462437,39.97409754
The Goddard School of Tuttle,4980 Parkcenter Ave.,Dublin,OH,43017,135,-83.125093,40.07923726
Kids Academy*,1012 High St,Worthington,OH,43085,76,-83.01767351,40.09467206
Kinder Care Learning Center #707*,6601 Bartlett Rd,Reynoldsburg,OH,43068,117,-82.82060434,39.95147153
Perkins Playhouse and Learning Center Inc.*,1700 Courtright Rd.,Columbus,OH,43227,61,-82.89753394,39.93794955
Northside Montessori School*,2855 Snouffer Road,Columbus,OH,43235,48,-83.06423204,40.10379976
Joyland Early Learning Center*,2222 Hilliard-Rome Rd.,Hilliard,OH,43026,83,-83.15262992,39.99613095
Westland Day Care Center (Creative Child Care)*,485 Industrial Mile Rd,Columbus,OH,43228,138,-83.1152399,39.94250282
Arlington Childrens Center*,1033 Old Henderson Rd,Columbus,OH,43220,134,-83.04769253,40.05144324
New Albany Christian Child Care,6000 Johnstown Road,New Albany,OH,43054,122,-82.81690366,40.07744903
Brooksedge Day Care Center,2185 Hilliard-Rome Rd.,Hilliard,OH,43026,178,-83.15272369,39.99552082
Kinder Care Learning Center*,139 North Stygler Road,Gahanna,OH,43230,81,-82.89048718,40.02122043